STARLINK-36507          
1 67409U 26005F   26068.49278569  .00025513  00000+0  93302-3 0  9996
2 67409  43.0013 239.3292 0002133 265.9144  94.1464 15.27593745  8665
KUIPER-00266            
1 67789U 26030AB  26067.91293632  .00029701  00000+0  98220-3 0  9996
2 67789  51.8807 223.5904 0022313  72.5291 287.8129 15.30874235  4964
